[{"OBJECT_NAME":"SCS-01 G","OBJECT_ID":"2025-100G","EPOCH":"2026-03-09T22:06:35.300160","MEAN_MOTION":15.25626619,"ECCENTRICITY":0.00115239,"INCLINATION":97.3761,"RA_OF_ASC_NODE":145.2582,"ARG_OF_PERICENTER":298.6971,"MEAN_ANOMALY":61.3108,"EPHEMERIS_TYPE":0,"CLASSIFICATION_TYPE":"U","NORAD_CAT_ID":63988,"ELEMENT_SET_NO":999,"REV_AT_EPOCH":4562,"BSTAR":0.00025501168,"MEAN_MOTION_DOT":6.423e-5,"MEAN_MOTION_DDOT":0},{"OBJECT_NAME":"STARLINK-35507","OBJECT_ID":"2025-253J","EPOCH":"2026-03-09T09:42:59.046048","MEAN_MOTION":15.27588583,"ECCENTRICITY":0.00014804,"INCLINATION":42.9965,"RA_OF_ASC_NODE":213.8756,"ARG_OF_PERICENTER":178.6195,"MEAN_ANOMALY":181.4661,"EPHEMERIS_TYPE":0,"CLASSIFICATION_TYPE":"U","NORAD_CAT_ID":66327,"ELEMENT_SET_NO":999,"REV_AT_EPOCH":2020,"BSTAR":0.0011762822,"MEAN_MOTION_DOT":0.00032257,"MEAN_MOTION_DDOT":0}]
